0 SL-6 R/B(2)
1 22324U 93006D   13279.85967831 -.00000598  00000-0  00000+0 0  5055
2 22324 067.4891 082.6029 6126480 198.8798 352.2059 02.03729454153982
0 SL-6 R/B(2)
1 22324U 93006D   13281.95830247 -.00000483  00000-0  00000+0 0  5063
2 22324 067.4899 082.4570 6126337 198.8429 091.3613 02.03726735154023
0 SL-6 R/B(2)
1 22324U 93006D   13285.98125221 -.00000055  00000-0  00000+0 0  5086
2 22324 067.4925 082.1774 6125986 198.7715 161.7815 02.03721732154110
0 SL-6 R/B(2)
1 22324U 93006D   13288.38103306  .00000185  00000-0  00000+0 0  5097
2 22324 067.4982 082.0102 6125536 198.7053 121.7723 02.03719528154162
0 SL-6 R/B(2)
1 22324U 93006D   13288.63827341  .00000207  00000-0  00000+0 0  5104
2 22324 067.4933 081.9920 6125658 198.7224 310.4022 02.03719708154168
0 SL-6 R/B(2)
1 22324U 93006D   13292.55705814  .00000489  00000-0  00000+0 0  5113
2 22324 067.4968 081.7191 6125292 198.6480 304.3725 02.03719571154240
